NORAD_CAT_ID,OBJECT_NAME,OBJECT_TYPE,EPOCH,MEAN_MOTION,ECCENTRICITY,INCLINATION,RA_OF_ASC_NODE,ARG_OF_PERICENTER,MEAN_ANOMALY,BSTAR,MEAN_MOTION_DOT,MEAN_MOTION_DDOT,TLE_LINE0,TLE_LINE1,TLE_LINE2,SEMIMAJOR_AXIS,PERIOD,APOGEE,PERIGEE,DECAYED
50835.0,STARLINK-3310,PAYLOAD,2023-08-05 12:41:12,15.08873877,0.0001155,53.2163,111.099,124.3787,235.7314,-0.00023628,-4.05e-05,0.0,0 STARLINK-3310,1 50835U 22001AJ  23217.52861532 -.00004050  00000-0 -23628-3 0  9998,2 50835  53.2163 111.0990 0001155 124.3787 235.7314 15.08873877 88531,6917.777,95.435,540.441,538.843,0.0
50835.0,STARLINK-3310,PAYLOAD,2023-08-06 09:21:13,15.08846693,0.0001103,53.216,107.2334,89.2941,270.8178,0.00013305,1.831e-05,0.0,0 STARLINK-3310,1 50835U 22001AJ  23218.38973392  .00001831  00000-0  13305-3 0  9994,2 50835  53.2160 107.2334 0001103  89.2941 270.8178 15.08846693 88669,6917.86,95.437,540.488,538.962,0.0
50835.0,STARLINK-3310,PAYLOAD,2023-08-06 15:42:46,15.08825315,0.0001782,53.2155,106.0452,83.3233,276.7962,-0.00013231,-2.392e-05,0.0,0 STARLINK-3310,1 50835U 22001AJ  23218.65470845 -.00002392  00000-0 -13231-3 0  9992,2 50835  53.2155 106.0452 0001782  83.3233 276.7962 15.08825315 88702,6917.925,95.438,541.023,538.558,0.0
50835.0,STARLINK-3310,PAYLOAD,2023-08-07 21:55:07,15.08838484,9.89e-05,53.2154,100.3958,79.5793,280.5311,0.0012543,0.0001973,0.0,0 STARLINK-3310,1 50835U 22001AJ  23219.91328012  .00019730  00000-0  12543-2 0  9996,2 50835  53.2154 100.3958 0000989  79.5793 280.5311 15.08838484 88897,6917.885,95.438,540.434,539.066,0.0
50835.0,STARLINK-3310,PAYLOAD,2023-08-09 02:32:02,15.08886432,9.14e-05,53.2154,95.0427,80.1359,279.9737,0.0013266,0.00020915,0.0,0 STARLINK-3310,1 50835U 22001AJ  23221.10558143  .00020915  00000-0  13266-2 0  9990,2 50835  53.2154  95.0427 0000914  80.1359 279.9737 15.08886432 89073,6917.738,95.435,540.236,538.971,0.0
50835.0,STARLINK-3310,PAYLOAD,2023-08-09 08:53:34,15.08861403,7.97e-05,53.2155,93.8532,92.5707,267.5376,0.00025604,3.792e-05,0.0,0 STARLINK-3310,1 50835U 22001AJ  23221.37053892  .00003792  00000-0  25604-3 0  9994,2 50835  53.2155  93.8532 0000797  92.5707 267.5376 15.08861403 89118,6917.815,95.436,540.231,539.129,0.0
50835.0,STARLINK-3310,PAYLOAD,2023-08-10 00:47:26,15.08852426,9.44e-05,53.216,90.8781,102.111,257.9988,0.00049174,7.549e-05,0.0,0 STARLINK-3310,1 50835U 22001AJ  23222.03294236  .00007549  00000-0  49174-3 0  9999,2 50835  53.2160  90.8781 0000944 102.1110 257.9988 15.08852426 89215,6917.842,95.437,540.36,539.054,0.0
50835.0,STARLINK-3310,PAYLOAD,2023-08-10 08:44:22,15.08844057,0.0001166,53.2161,89.3924,92.453,267.6596,0.00064037,9.919e-05,0.0,0 STARLINK-3310,1 50835U 22001AJ  23222.36414603  .00009919  00000-0  64037-3 0  9995,2 50835  53.2161  89.3924 0001166  92.4530 267.6596 15.08844057 89261,6917.868,95.437,540.54,538.926,0.0
50835.0,STARLINK-3310,PAYLOAD,2023-08-11 00:38:13,15.08848352,0.0001144,53.2164,86.4191,96.3846,263.7277,0.00078088,0.00012164,0.0,0 STARLINK-3310,1 50835U 22001AJ  23223.02654665  .00012164  00000-0  78088-3 0  9990,2 50835  53.2164  86.4191 0001144  96.3846 263.7277 15.08848352 89363,6917.855,95.437,540.511,538.928,0.0
50835.0,STARLINK-3310,PAYLOAD,2023-08-11 08:35:09,15.08839046,0.0001418,53.2162,84.9325,84.8591,275.2563,0.00028827,4.303e-05,0.0,0 STARLINK-3310,1 50835U 22001AJ  23223.35775004  .00004303  00000-0  28827-3 0  9999,2 50835  53.2162  84.9325 0001418  84.8591 275.2563 15.08839046 89418,6917.883,95.438,540.729,538.767,0.0
50835.0,STARLINK-3310,PAYLOAD,2023-08-12 21:09:01,15.08845527,9.9e-05,53.217,78.0939,85.0579,275.0526,0.00023282,3.42e-05,0.0,0 STARLINK-3310,1 50835U 22001AJ  23224.88126861  .00003420  00000-0  23282-3 0  9998,2 50835  53.2170  78.0939 0000990  85.0579 275.0526 15.08845527 89648,6917.863,95.437,540.413,539.044,0.0
50835.0,STARLINK-3310,PAYLOAD,2023-08-13 17:49:02,15.08836624,0.0001167,53.2159,74.228,84.4709,275.6416,1.3024e-05,-8.1e-07,0.0,0 STARLINK-3310,1 50835U 22001AJ  23225.74239160 -.00000081  00000-0  13024-4 0  9996,2 50835  53.2159  74.2280 0001167  84.4709 275.6416 15.08836624 89773,6917.891,95.438,540.563,538.948,0.0
50835.0,STARLINK-3310,PAYLOAD,2023-08-15 00:01:21,15.08844964,9.97e-05,53.2177,68.5774,98.8476,261.2629,0.0001172,1.578e-05,0.0,0 STARLINK-3310,1 50835U 22001AJ  23227.00094888  .00001578  00000-0  11720-3 0  9994,2 50835  53.2177  68.5774 0000997  98.8476 261.2629 15.08844964 89961,6917.865,95.437,540.42,539.041,0.0
50835.0,STARLINK-3310,PAYLOAD,2023-08-15 23:52:09,15.08842443,0.000102,53.2181,64.1155,88.7865,271.3244,8.9655e-05,1.139e-05,0.0,0 STARLINK-3310,1 50835U 22001AJ  23227.99455198  .00001139  00000-0  89655-4 0  9993,2 50835  53.2181  64.1155 0001020  88.7865 271.3244 15.08842443 90113,6917.873,95.437,540.444,539.032,0.0
50835.0,STARLINK-3310,PAYLOAD,2023-08-17 06:04:28,15.08847725,0.000116,53.2176,58.4678,84.0136,276.0988,4.4639e-05,4.23e-06,0.0,0 STARLINK-3310,1 50835U 22001AJ  23229.25311006  .00000423  00000-0  44639-4 0  9991,2 50835  53.2176  58.4678 0001160  84.0136 276.0988 15.08847725 90304,6917.857,95.437,540.524,538.919,0.0
50835.0,STARLINK-3310,PAYLOAD,2023-08-18 05:55:16,15.08835673,0.0001288,53.2131,54.006,91.1845,268.9294,2.9738e-05,1.85e-06,0.0,0 STARLINK-3310,1 50835U 22001AJ  23230.24671560  .00000185  00000-0  29738-4 0  9994,2 50835  53.2131  54.0060 0001288  91.1845 268.9294 15.08835673 90454,6917.894,95.438,540.65,538.868,0.0
50835.0,STARLINK-3310,PAYLOAD,2023-08-19 12:07:35,15.08842126,0.0001089,53.2167,48.3562,97.0478,263.0638,9.3739e-05,1.204e-05,0.0,0 STARLINK-3310,1 50835U 22001AJ  23231.50527445  .00001204  00000-0  93739-4 0  9991,2 50835  53.2167  48.3562 0001089  97.0478 263.0638 15.08842126 90642,6917.874,95.437,540.492,538.986,0.0
50835.0,STARLINK-3310,PAYLOAD,2023-08-20 18:19:55,15.08842913,0.0001088,53.2172,42.7055,102.2551,257.8563,0.00015142,2.123e-05,0.0,0 STARLINK-3310,1 50835U 22001AJ  23232.76383511  .00002123  00000-0  15142-3 0  9996,2 50835  53.2172  42.7055 0001088 102.2551 257.8563 15.08842913 90836,6917.871,95.437,540.489,538.984,0.0
50835.0,STARLINK-3310,PAYLOAD,2023-08-21 03:52:14,15.08832014,0.000126,53.2178,40.9213,86.0958,274.0179,-4.1504e-06,-3.54e-06,0.0,0 STARLINK-3310,1 50835U 22001AJ  23233.16128162 -.00000354  00000-0 -41504-5 0  9999,2 50835  53.2178  40.9213 0001260  86.0958 274.0179 15.08832014 90891,6917.905,95.438,540.641,538.898,0.0
50835.0,STARLINK-3310,PAYLOAD,2023-08-21 18:10:42,15.08844246,0.0001067,53.2175,38.2451,90.6865,269.425,0.00018006,2.579e-05,0.0,0 STARLINK-3310,1 50835U 22001AJ  23233.75743633  .00002579  00000-0  18006-3 0  9998,2 50835  53.2175  38.2451 0001067  90.6865 269.4250 15.08844246 90983,6917.867,95.437,540.471,538.994,0.0
50835.0,STARLINK-3310,PAYLOAD,2023-08-22 11:39:57,15.08837392,0.0001044,53.2179,34.9733,88.8468,271.2643,9.0639e-06,-1.44e-06,0.0,0 STARLINK-3310,1 50835U 22001AJ  23234.48607883 -.00000144  00000-0  90639-5 0  9996,2 50835  53.2179  34.9733 0001044  88.8468 271.2643 15.08837392 91090,6917.888,95.438,540.476,539.031,0.0
50835.0,STARLINK-3310,PAYLOAD,2023-08-22 21:12:15,15.08845513,0.0001066,53.2179,33.1893,89.0051,271.1064,0.00019473,2.813e-05,0.0,0 STARLINK-3310,1 50835U 22001AJ  23234.88351642  .00002813  00000-0  19473-3 0  9998,2 50835  53.2179  33.1893 0001066  89.0051 271.1064 15.08845513 91150,6917.864,95.437,540.466,538.991,0.0
50835.0,STARLINK-3310,PAYLOAD,2023-08-24 11:21:31,15.08830406,0.0001233,53.2175,26.0584,35.998,324.1095,-0.00011058,-2.047e-05,0.0,0 STARLINK-3310,1 50835U 22001AJ  23236.47328430 -.00002047  00000-0 -11058-3 0  9996,2 50835  53.2175  26.0584 0001233  35.9980 324.1095 15.08830406 90136,6917.91,95.438,540.628,538.922,0.0
50835.0,STARLINK-3310,PAYLOAD,2023-08-25 19:09:14,15.08848,0.000112,53.2161,20.1069,72.512,287.5994,0.00040289,6.131e-05,0.0,0 STARLINK-3310,1 50835U 22001AJ  23237.79808248  .00006131  00000-0  40289-3 0  9996,2 50835  53.2161  20.1069 0001120  72.5120 287.5994 15.08848000 91592,6917.856,95.437,540.496,538.946,0.0
50835.0,STARLINK-3310,PAYLOAD,2023-08-25 20:44:37,15.08850556,0.0001044,53.2167,19.8097,86.2411,273.87,0.00050146,7.704e-05,0.0,0 STARLINK-3310,1 50835U 22001AJ  23237.86432165  .00007704  00000-0  50146-3 0  9995,2 50835  53.2167  19.8097 0001044  86.2411 273.8700 15.08850556 90348,6917.848,95.437,540.435,538.991,0.0
50835.0,STARLINK-3310,PAYLOAD,2023-08-26 17:24:38,15.08845678,0.0001719,53.2171,15.9453,64.7371,295.38,0.00029474,4.407e-05,0.0,0 STARLINK-3310,1 50835U 22001AJ  23238.72544634  .00004407  00000-0  29474-3 0  9993,2 50835  53.2171  15.9453 0001719  64.7371 295.3800 15.08845678 91734,6917.863,95.437,540.917,538.539,0.0
50835.0,STARLINK-3310,PAYLOAD,2023-08-27 09:18:29,15.08841956,0.0001259,53.2163,12.9708,88.2258,271.8878,0.00014857,2.078e-05,0.0,0 STARLINK-3310,1 50835U 22001AJ  23239.38784532  .00002078  00000-0  14857-3 0  9990,2 50835  53.2163  12.9708 0001259  88.2258 271.8878 15.08841956 91839,6917.874,95.437,540.61,538.868,0.0
50835.0,STARLINK-3310,PAYLOAD,2023-08-27 15:40:02,15.08844579,0.0001186,53.2172,11.7802,95.2441,264.8686,0.00016908,2.404e-05,0.0,0 STARLINK-3310,1 50835U 22001AJ  23239.65280381  .00002404  00000-0  16908-3 0  9995,2 50835  53.2172  11.7802 0001186  95.2441 264.8686 15.08844579 90610,6917.866,95.437,540.552,538.911,0.0
50835.0,STARLINK-3310,PAYLOAD,2023-08-28 09:09:17,15.08836309,0.0001289,53.2178,8.5096,99.9768,260.137,3.2768e-05,2.34e-06,0.0,0 STARLINK-3310,1 50835U 22001AJ  23240.38144822  .00000234  00000-0  32768-4 0  9998,2 50835  53.2178   8.5096 0001289  99.9768 260.1370 15.08836309 91984,6917.892,95.438,540.648,538.865,0.0
50835.0,STARLINK-3310,PAYLOAD,2023-08-28 15:30:49,15.08840074,0.000123,53.2177,7.3213,90.2696,269.8437,9.8879e-06,-1.3e-06,0.0,0 STARLINK-3310,1 50835U 22001AJ  23240.64640757 -.00000130  00000-0  98879-5 0  9997,2 50835  53.2177   7.3213 0001230  90.2696 269.8437 15.08840074 90760,6917.88,95.438,540.596,538.894,0.0
